{
  "type": "FeatureCollection",
  "features": [
    {
      "type": "Feature",
      "properties": {
        "norad_id": 66885,
        "name": "STARLINK-35954",
        "group": "last-30-days",
        "lat": -46.39359819305482,
        "lon": -88.80661520691771,
        "alt_km": 347.45146366681456,
        "timestamp": "2025-12-19T14:48:34.965802+00:00",
        "meta_object_name": "STARLINK-35954",
        "meta_object_id": "2025-283H",
        "meta_epoch": "2025-12-19T06:00:02.000160",
        "meta_mean_motion": 15.76994968,
        "meta_eccentricity": 8.351e-05,
        "meta_inclination": 53.1559,
        "meta_ra_of_asc_node": 41.0934,
        "meta_arg_of_pericenter": 83.008,
        "meta_mean_anomaly": 237.511,
        "meta_ephemeris_type": 0,
        "meta_classification_type": "U",
        "meta_norad_cat_id": 66885,
        "meta_element_set_no": 999,
        "meta_rev_at_epoch": 347,
        "meta_bstar": -0.0095175973,
        "meta_mean_motion_dot": -0.0140032,
        "meta_mean_motion_ddot": 0,
        "tle_line1": "1 66885U 25283H   25353.25002315 -.01400320  00000+0 -95176-2 0  9990",
        "tle_line2": "2 66885  53.1559  41.0934 0000835  83.0080 237.5110 15.76994968  3476"
      },
      "geometry": {
        "type": "Point",
        "coordinates": [
          -88.80661520691771,
          -46.39359819305482
        ]
      }
    },
    {
      "type": "Feature",
      "properties": {
        "norad_id": 66886,
        "name": "STARLINK-35900",
        "group": "last-30-days",
        "lat": -48.367509147356955,
        "lon": -83.22190415735945,
        "alt_km": 348.195562832062,
        "timestamp": "2025-12-19T14:48:34.965812+00:00",
        "meta_object_name": "STARLINK-35900",
        "meta_object_id": "2025-283J",
        "meta_epoch": "2025-12-19T06:00:02.000160",
        "meta_mean_motion": 15.76821,
        "meta_eccentricity": 9.438e-05,
        "meta_inclination": 53.1561,
        "meta_ra_of_asc_node": 41.0835,
        "meta_arg_of_pericenter": 76.8215,
        "meta_mean_anomaly": 248.2275,
        "meta_ephemeris_type": 0,
        "meta_classification_type": "U",
        "meta_norad_cat_id": 66886,
        "meta_element_set_no": 999,
        "meta_rev_at_epoch": 347,
        "meta_bstar": -0.0098567335,
        "meta_mean_motion_dot": -0.01434565,
        "meta_mean_motion_ddot": 0,
        "tle_line1": "1 66886U 25283J   25353.25002315 -.01434565  00000+0 -98567-2 0  9996",
        "tle_line2": "2 66886  53.1561  41.0835 0000943  76.8215 248.2275 15.76821000  3477"
      },
      "geometry": {
        "type": "Point",
        "coordinates": [
          -83.22190415735945,
          -48.367509147356955
        ]
      }
    },
    {
      "type": "Feature",
      "properties": {
        "norad_id": 66887,
        "name": "STARLINK-35925",
        "group": "last-30-days",
        "lat": -49.21463847666262,
        "lon": -80.3879985333429,
        "alt_km": 348.3566723503709,
        "timestamp": "2025-12-19T14:48:34.965826+00:00",
        "meta_object_name": "STARLINK-35925",
        "meta_object_id": "2025-283K",
        "meta_epoch": "2025-12-19T06:00:02.000160",
        "meta_mean_motion": 15.76770719,
        "meta_eccentricity": 8.202e-05,
        "meta_inclination": 53.156,
        "meta_ra_of_asc_node": 41.0796,
        "meta_arg_of_pericenter": 80.6407,
        "meta_mean_anomaly": 246.5485,
        "meta_ephemeris_type": 0,
        "meta_classification_type": "U",
        "meta_norad_cat_id": 66887,
        "meta_element_set_no": 999,
        "meta_rev_at_epoch": 347,
        "meta_bstar": -0.010111433,
        "meta_mean_motion_dot": -0.01464266,
        "meta_mean_motion_ddot": 0,
        "tle_line1": "1 66887U 25283K   25353.25002315 -.01464266  00000+0 -10111-1 0  9996",
        "tle_line2": "2 66887  53.1560  41.0796 0000820  80.6407 246.5485 15.76770719  3477"
      },
      "geometry": {
        "type": "Point",
        "coordinates": [
          -80.3879985333429,
          -49.21463847666262
        ]
      }
    },
    {
      "type": "Feature",
      "properties": {
        "norad_id": 66888,
        "name": "STARLINK-35919",
        "group": "last-30-days",
        "lat": -49.98605276383755,
        "lon": -77.47606444257475,
        "alt_km": 348.57613837535973,
        "timestamp": "2025-12-19T14:48:34.965836+00:00",
        "meta_object_name": "STARLINK-35919",
        "meta_object_id": "2025-283L",
        "meta_epoch": "2025-12-19T06:00:02.000160",
        "meta_mean_motion": 15.76717691,
        "meta_eccentricity": 7.704e-05,
        "meta_inclination": 53.156,
        "meta_ra_of_asc_node": 41.075,
        "meta_arg_of_pericenter": 80.2455,
        "meta_mean_anomaly": 249.0773,
        "meta_ephemeris_type": 0,
        "meta_classification_type": "U",
        "meta_norad_cat_id": 66888,
        "meta_element_set_no": 999,
        "meta_rev_at_epoch": 347,
        "meta_bstar": -0.010367242,
        "meta_mean_motion_dot": -0.01493672,
        "meta_mean_motion_ddot": 0,
        "tle_line1": "1 66888U 25283L   25353.25002315 -.01493672  00000+0 -10367-1 0  9993",
        "tle_line2": "2 66888  53.1560  41.0750 0000770  80.2455 249.0773 15.76717691  3479"
      },
      "geometry": {
        "type": "Point",
        "coordinates": [
          -77.47606444257475,
          -49.98605276383755
        ]
      }
    },
    {
      "type": "Feature",
      "properties": {
        "norad_id": 66889,
        "name": "STARLINK-35852",
        "group": "last-30-days",
        "lat": -50.69585704027607,
        "lon": -74.40684693810456,
        "alt_km": 348.9834156169127,
        "timestamp": "2025-12-19T14:48:34.965846+00:00",
        "meta_object_name": "STARLINK-35852",
        "meta_object_id": "2025-283M",
        "meta_epoch": "2025-12-19T06:00:02.000160",
        "meta_mean_motion": 15.76620487,
        "meta_eccentricity": 8.412e-05,
        "meta_inclination": 53.1553,
        "meta_ra_of_asc_node": 41.0698,
        "meta_arg_of_pericenter": 76.0813,
        "meta_mean_anomaly": 255.4757,
        "meta_ephemeris_type": 0,
        "meta_classification_type": "U",
        "meta_norad_cat_id": 66889,
        "meta_element_set_no": 999,
        "meta_rev_at_epoch": 347,
        "meta_bstar": -0.010600062,
        "meta_mean_motion_dot": -0.01517312,
        "meta_mean_motion_ddot": 0,
        "tle_line1": "1 66889U 25283M   25353.25002315 -.01517312  00000+0 -10600-1 0  9992",
        "tle_line2": "2 66889  53.1553  41.0698 0000841  76.0813 255.4757 15.76620487  3472"
      },
      "geometry": {
        "type": "Point",
        "coordinates": [
          -74.40684693810456,
          -50.69585704027607
        ]
      }
    },
    {
      "type": "Feature",
      "properties": {
        "norad_id": 66890,
        "name": "STARLINK-35885",
        "group": "last-30-days",
        "lat": -51.31397264910966,
        "lon": -71.30035946806721,
        "alt_km": 349.2234821655129,
        "timestamp": "2025-12-19T14:48:34.965856+00:00",
        "meta_object_name": "STARLINK-35885",
        "meta_object_id": "2025-283N",
        "meta_epoch": "2025-12-19T06:00:02.000160",
        "meta_mean_motion": 15.76525003,
        "meta_eccentricity": 7.478e-05,
        "meta_inclination": 53.1557,
        "meta_ra_of_asc_node": 41.0654,
        "meta_arg_of_pericenter": 82.6423,
        "meta_mean_anomaly": 251.1,
        "meta_ephemeris_type": 0,
        "meta_classification_type": "U",
        "meta_norad_cat_id": 66890,
        "meta_element_set_no": 999,
        "meta_rev_at_epoch": 347,
        "meta_bstar": -0.010689525,
        "meta_mean_motion_dot": -0.01522756,
        "meta_mean_motion_ddot": 0,
        "tle_line1": "1 66890U 25283N   25353.25002315 -.01522756  00000+0 -10690-1 0  9991",
        "tle_line2": "2 66890  53.1557  41.0654 0000747  82.6423 251.1000 15.76525003  3477"
      },
      "geometry": {
        "type": "Point",
        "coordinates": [
          -71.30035946806721,
          -51.31397264910966
        ]
      }
    },
    {
      "type": "Feature",
      "properties": {
        "norad_id": 66891,
        "name": "STARLINK-35855",
        "group": "last-30-days",
        "lat": -51.84621368051873,
        "lon": -68.12085513408866,
        "alt_km": 349.7317926861424,
        "timestamp": "2025-12-19T14:48:34.965866+00:00",
        "meta_object_name": "STARLINK-35855",
        "meta_object_id": "2025-283P",
        "meta_epoch": "2025-12-19T06:00:02.000160",
        "meta_mean_motion": 15.76415304,
        "meta_eccentricity": 0.00010414,
        "meta_inclination": 53.1557,
        "meta_ra_of_asc_node": 41.0611,
        "meta_arg_of_pericenter": 88.5857,
        "meta_mean_anomaly": 247.3499,
        "meta_ephemeris_type": 0,
        "meta_classification_type": "U",
        "meta_norad_cat_id": 66891,
        "meta_element_set_no": 999,
        "meta_rev_at_epoch": 347,
        "meta_bstar": -0.010720701,
        "meta_mean_motion_dot": -0.01520294,
        "meta_mean_motion_ddot": 0,
        "tle_line1": "1 66891U 25283P   25353.25002315 -.01520294  00000+0 -10721-1 0  9992",
        "tle_line2": "2 66891  53.1557  41.0611 0001041  88.5857 247.3499 15.76415304  3476"
      },
      "geometry": {
        "type": "Point",
        "coordinates": [
          -68.12085513408866,
          -51.84621368051873
        ]
      }
    }
  ]
}